{"spkid": "54137512", "covariance": {"labels": ["e", "q", "tp", "node", "peri", "i"], "elements": [{"label": "e", "value": ".1552551524704582", "title": "eccentricity", "units": null, "name": "e", "sigma": 1.12640731027167e-06}, {"label": "q", "units": "au", "value": ".9877086063095608", "title": "perihelion distance", "name": "q", "sigma": 1.27340768379462e-06}, {"value": "2460405.035032705805", "title": "time of perihelion passage", "units": "TDB", "sigma": 0.000610529541411295, "name": "tp", "label": "tp"}, {"label": "node", "sigma": 1.70205447656731e-05, "name": "om", "units": "deg", "value": "23.51231681297633", "title": "longitude of the ascending node"}, {"value": "320.800946920875", "title": "argument of perihelion", "units": "deg", "sigma": 0.000378441378974911, "name": "w", "label": "peri"}, {"units": "deg", "title": "inclination", "value": "15.80523382842082", "sigma": 4.59239580918156e-05, "name": "i", "label": "i"}], "data": [["1.268793428633467E-12", "-1.43418458905387E-12", "1.328489507078112E-10", "-3.078243258825422E-12", "1.291234653387638E-10", "4.877065088033026E-11"], ["-1.43418458905387E-12", "1.62156712914717E-12", "-1.381210232505941E-10", "3.417768936711274E-12", "-1.387278379449021E-10", "-5.508018799349093E-11"], ["1.328489507078112E-10", "-1.381210232505941E-10", "3.727463209358865E-7", "-2.236521144577163E-9", "2.29337157088253E-7", "6.718682291093603E-9"], ["-3.078243258825422E-12", "3.417768936711274E-12", "-2.236521144577163E-9", "2.896989441202816E-10", "-1.726764753166888E-9", "-2.150827783738254E-10"], ["1.291234653387638E-10", "-1.387278379449021E-10", "2.29337157088253E-7", "-1.726764753166888E-9", "1.432178773204319E-7", "6.023488389413203E-9"], ["4.877065088033026E-11", "-5.508018799349093E-11", "6.718682291093603E-9", "-2.150827783738254E-10", "6.023488389413203E-9", "2.109009926818838E-9"]], "epoch": "2460231.5"}, "elements": [{"sigma": "1.1264E-6", "name": "e", "units": null, "title": "eccentricity", "value": ".1553120716291136", "label": "e"}, {"value": "1.169270151833129", "title": "semi-major axis", "units": "au", "sigma": "5.7633E-8", "name": "a", "label": "a"}, {"units": "au", "value": ".9876683822578376", "title": "perihelion distance", "name": "q", "sigma": "1.2735E-6", "label": "q"}, {"units": "deg", "title": "inclination; angle with respect to x-y ecliptic plane", "value": "15.80439888027396", "sigma": "4.5923E-5", "name": "i", "label": "i"}, {"label": "node", "units": "deg", "title": "longitude of the ascending node", "value": "23.49757266197866", "name": "om", "sigma": "1.702E-5"}, {"label": "peri", "name": "w", "sigma": ".00037835", "title": "argument of perihelion", "value": "320.8104831788583", "units": "deg"}, {"title": "mean anomaly", "value": "260.1141527730801", "units": "deg", "name": "ma", "sigma": ".00050441", "label": "M"}, {"label": "tp", "sigma": ".00065324", "name": "tp", "title": "time of perihelion passage", "value": "2461328.636299891598", "units": "TDB"}, {"sigma": "3.4145E-5", "name": "per", "title": "sidereal orbital period", "value": "461.8178575006699", "units": "d", "label": "period"}, {"units": "deg/d", "value": ".7795281064883416", "title": "mean motion", "sigma": "5.7635E-8", "name": "n", "label": "n"}, {"label": "Q", "name": "ad", "sigma": "6.6585E-8", "title": "aphelion distance", "value": "1.350871921408421", "units": "au"}], "epoch": "2461200.5"}